UNKNOWN                 
1 83934U          26030.65795277 -.00000240  00000+0  00000+0 0  9991
2 83934   5.6723 297.1800 0226932 275.2112 266.6238  1.02662837 45785
UNKNOWN                 
1 83970U          26020.43914988  .00018377  00000+0  19066-1 0  9991
2 83970  18.2832 175.2192 5069741 225.7549  79.4387  5.32660551198274
UNKNOWN                 
1 84006U          26025.57463052  .00000069  00000+0  00000+0 0  9998
2 84006  22.3968 168.5868 6158541  76.0884 341.7263  2.16233433 85179
UNKNOWN                 
1 84188U          26021.81839255  .00591225  00000+0  24249+0 0  9994
2 84188  65.0311 222.4584 3625179  14.3088 353.7650  7.87378171 44366
UNKNOWN                 
1 84232U          26030.25024732  .00028050  00000+0  22487-1 0  9993
2 84232  20.3168 246.1600 6548723 114.9066 324.3380  3.19004786106235
UNKNOWN                 
1 84236U          26030.31941593  .00000954  00000+0  60458-2 0  9991
2 84236   9.3822 313.5078 6892194 137.1967 304.4390  2.62602612115253
UNKNOWN                 
1 84292U          26029.58424744  .00005563  00000+0  32054-2 0  9996
2 84292  23.8202  94.0570 4560094 355.2826   1.6098  6.21924797231049
UNKNOWN                 
1 84406U          26008.21880314  .00000785  00000+0  43231-2 0  9999
2 84406 101.7141 157.7019 0042055 340.3466 199.3092 12.67381377 52646
UNKNOWN                 
1 84407U          26016.92332814  .00000260  00000+0  12077-1 0  9995
2 84407  19.4644 312.1530 7202436  80.6851 347.5491  2.05777016 76595
UNKNOWN                 
1 84575U          26023.68382094 -.00000153  00000+0 -88412-2 0  9997
2 84575  18.0471 144.6559 7105805  47.9126 353.5221  2.19880109 66383
UNKNOWN                 
1 84932U          26030.59672709  .00001053  00000+0  86391-2 0  9999
2 84932   2.0293 214.4329 6577993 111.4029 169.7426  3.00060359133247
UNKNOWN                 
1 85004U          26026.19721473  .00002303  00000+0  71691-3 0  9991
2 85004  98.4272   1.5900 0047739  30.0577 344.8034 14.41221526637301
UNKNOWN                 
1 85010U          26023.58836398  .00001614  00000+0  17271-2 0  9998
2 85010  99.2489 249.2205 0025029 142.7232 245.1689 13.75158132609679
UNKNOWN                 
1 85015U          26028.49801653  .00000907  00000+0  18519-3 0  9995
2 85015  74.0507 308.7221 0015747 207.7502 152.2827 14.62364305649442
UNKNOWN                 
1 85023U          26030.57430829  .00034878  00000+0  48385-2 0  9996
2 85023  99.8450  61.6466 0002956 166.5896 346.4203 14.77821513636036
UNKNOWN                 
1 85027U          26030.12052228  .00000119  00000+0  18775-3 0  9996
2 85027  66.0437 343.0317 0172986 164.9460 195.6848 13.74268592611268
UNKNOWN                 
1 85047U          26027.90793707  .00016346  00000+0  25882-1 0  9998
2 85047 102.1668   8.0136 0143376 284.9452  73.5835 13.45685940582861
UNKNOWN                 
1 85061U          26029.53172418  .00004824  00000+0  19260-1 0  9996
2 85061 102.3962  22.6950 0261289  95.8284  27.9486 12.77370273561886
UNKNOWN                 
1 85100U          26028.58346051  .00000694  00000+0  22508-3 0  9992
2 85100  74.0464 136.1842 0012802 347.9262  27.6582 14.40760720640092
UNKNOWN                 
1 85106U          26028.13518815  .00000822  00000+0  94381-3 0  9999
2 85106 100.0523 136.2774 0009321 250.2808 230.0290 13.72972080609430
UNKNOWN                 
1 85151U          26030.59124835  .00027278  00000+0  34907-2 0  9998
2 85151  98.4052 261.8611 0011006 355.2787   4.8318 14.81256755486758
UNKNOWN                 
1 85210U          26028.68536915  .00001186  00000+0  11528-2 0  9991
2 85210  99.8575 175.9625 0218709 194.1635 180.0643 13.71637148608593
UNKNOWN                 
1 85217U          26029.47925223  .00002965  00000+0  78687-3 0  9996
2 85217  98.0268 125.7569 0206587 344.3546  15.1319 14.37448898634717
UNKNOWN                 
1 85237U          26023.60039772  .00005306  00000+0  11008-2 0  9997
2 85237  65.5329 105.0204 0514900   8.4704 352.4654 14.01306243614218
UNKNOWN                 
1 85238U          26030.57208095  .00000068  00000+0  91158-4 0  9994
2 85238  99.0660 323.3671 0064269  68.9259 104.3234 13.88353007617615
UNKNOWN                 
1 85246U          26029.97707102  .00001428  00000+0  51909-3 0  9998
2 85246  97.9882  33.9509 0223149 161.4076 199.5423 14.21669251629923
UNKNOWN                 
1 85373U          26030.59379950  .00002437  00000+0  16671-2 0  9992
2 85373 100.4278  78.4430 0051179 111.0304  43.1777 14.00253192618965
UNKNOWN                 
1 85430U          26026.68381291  .01102801  65252-3  17938-2 0  9990
2 85430  53.2147 236.7622 0003262 171.8494 188.2593 16.02882600    19
UNKNOWN                 
1 87014U          26030.41787798  .00003136  00000+0  48081-2 0  9997
2 87014 100.4858   2.4091 0045390 117.1204  34.2059 13.52134107597495
UNKNOWN                 
1 87029U          26025.05506437  .00001565  00000+0  97435-3 0  9998
2 87029  98.7531  63.7773 0083011 128.8755 231.9856 14.04608677599081
UNKNOWN                 
1 87042U          26030.38548146  .00001033  00000+0  63639-3 0  9997
2 87042  98.7085  76.8368 0042052 318.3212  41.4756 14.07211034560800
UNKNOWN                 
1 87051U          26030.57013664  .00002343  00000+0  83412-3 0  9996
2 87051  65.7292 137.9094 0710484 119.0374 248.3755 13.46140367595150
UNKNOWN                 
1 87054U          26030.64929308  .00002039  00000+0  11571-2 0  9996
2 87054 100.0924 281.0780 0012083 211.0933 148.9520 14.11311440623225
UNKNOWN                 
1 87071U          26030.29007401  .00009126  00000+0  32844-2 0  9997
2 87071  61.2224 127.4912 0473404 261.8611  92.8475 13.86164797609210
UNKNOWN                 
1 87129U          26027.72949371  .00000247  00000+0  21176-2 0  9997
2 87129 102.2598 124.2455 0027269 356.6348   3.4529 12.42837985552385
UNKNOWN                 
1 87159U          26028.35486864  .00001768  00000+0  20494-2 0  9994
2 87159  90.3473  71.0871 0107109 119.2461 241.9459 13.66201789563050
UNKNOWN                 
1 87163U          26025.70227159  .00002406  00000+0  73665-3 0  9994
2 87163  65.6014 127.8551 0644120  44.9091 320.2250 13.64154642583514
UNKNOWN                 
1 87164U          26030.71626359  .00004094  00000+0  83363-3 0  9998
2 87164  65.2020 185.4064 0102366  31.7917 328.9307 14.58945358642913
UNKNOWN                 
1 87204U          26030.56861836  .00002744  00000+0  10759-2 0  9995
2 87204  98.5340 255.4081 0045027 180.0973 180.0208 14.29632093632417
UNKNOWN                 
1 87211U          26028.27807352  .00006367  00000+0  17362-2 0  9993
2 87211  99.0870  36.4340 0053276  21.8855 356.8575 14.46898900714501
UNKNOWN                 
1 87214U          26030.25430454  .00000991  00000+0  91719-3 0  9998
2 87214 100.3307  38.6861 0071369 130.2989 230.4428 13.84165160606952
UNKNOWN                 
1 87237U          26030.65525316  .00000399  00000+0  33338-3 0  9994
2 87237  99.2489  91.0208 0104041 151.8901   1.7257 13.91809287618561
UNKNOWN                 
1 87239U          26030.44851000  .00015563  00000+0  37474-2 0  9998
2 87239  82.8729  41.4647 0017110 241.5861 118.3615 14.53101777634947
UNKNOWN                 
1 87245U          26030.11394960  .00007940  00000+0  16423-2 0  9997
2 87245  65.6403 278.3955 0427220  96.9335  48.0167 14.16293419621053
UNKNOWN                 
1 87271U          26030.29370115  .00006193  00000+0  11386-2 0  9993
2 87271  65.7550 105.7244 0419459  47.7573 315.8304 14.22285862619272
UNKNOWN                 
1 87280U          26030.24803505  .00000587  00000+0  10223-2 0  9992
2 87280  64.6154 115.3979 0129264 251.4020 107.2944 13.48606607540395
UNKNOWN                 
1 87293U          26030.67379684  .00014766  00000+0  28156-2 0  9997
2 87293  65.8986  15.1208 0428450 333.1375  24.8082 14.18886327620930
UNKNOWN                 
1 87300U          26023.18633471  .00003205  00000+0  22223-2 0  9996
2 87300 100.0927  14.8115 0025696 180.8645 179.2475 13.99617939618916
UNKNOWN                 
1 87304U          26030.25765421  .00002510  00000+0  37136-3 0  9995
2 87304  74.0163 225.9543 0018144 186.1973 173.8979 14.75660452653635
UNKNOWN                 
1 87320U          26029.83949979  .00004554  00000+0  28154-2 0  9996
2 87320  66.5960 329.5314 0418419  23.6909 338.2817 13.70297414600339
UNKNOWN                 
1 87334U          26030.67661319  .00022953  00000+0  12990-1 0  9997
2 87334  90.0015 271.6841 0061135  77.9562 282.8464 14.09018565393539
UNKNOWN                 
1 87335U          26030.67692444  .00020574  00000+0  11448-1 0  9995
2 87335  89.9893 267.9106 0081849  59.2715 301.6499 14.09210291393864
UNKNOWN                 
1 87405U          26029.93404844  .00003108  00000+0  22044-2 0  9994
2 87405  82.7492  22.0868 0057548 189.1975 170.8145 13.96594428617880
UNKNOWN                 
1 87426U          26029.90940772  .00007243  00000+0  27526-2 0  9993
2 87426  65.7805 203.8937 0068026 271.3463 238.7877 14.30231559629473
UNKNOWN                 
1 87448U          26028.56303099  .00001824  00000+0  14784-2 0  9994
2 87448 100.4524 245.8679 0062852  82.0276 278.8005 13.90765425615743
UNKNOWN                 
1 87456U          26026.21588867  .00021739  00000+0  31219-2 0  9990
2 87456  65.7802 332.8742 0510710 342.0853  16.2781 14.14458800617787
UNKNOWN                 
1 87517U          26021.77810484  .00008188  00000+0  22318-2 0  9990
2 87517  65.8185 135.2421 0675698 287.3753 146.8912 13.61546179598362
UNKNOWN                 
1 87541U          26010.42988520  .00000073  00000+0  22386-3 0  9995
2 87541  99.6994 227.9070 0059564 192.8657 291.0153 13.35601126585868
UNKNOWN                 
1 87553U          26029.18470889  .00003887  00000+0  11997-2 0  9996
2 87553  65.6675 241.0238 0695714 206.4511 149.9417 13.53743510597677
